CCSDS_OMM_VERS = 2.0
CREATION_DATE  = 
ORIGINATOR     = 

OBJECT_NAME    = ALOS (DAICHI)
OBJECT_ID      = 2006-002A
CENTER_NAME    = EARTH
REF_FRAME      = TEME
TIME_SYSTEM    = UTC
MEAN_ELEMENT_THEORY = SGP/SGP4

EPOCH          = 2025-12-17T07:48:55.725408
MEAN_MOTION    = 14.69500904
ECCENTRICITY   = .00013459
INCLINATION    = 98.1098
RA_OF_ASC_NODE = 302.7807
ARG_OF_PERICENTER = 113.9795
MEAN_ANOMALY   = 246.1551

EPHEMERIS_TYPE = 0
CLASSIFICATION_TYPE = U
NORAD_CAT_ID   = 28931
ELEMENT_SET_NO = 999
REV_AT_EPOCH   = 6138
BSTAR          = .20640726E-3
MEAN_MOTION_DOT = .1174E-4
MEAN_MOTION_DDOT = 0

CCSDS_OMM_VERS = 2.0
CREATION_DATE  = 
ORIGINATOR     = 

OBJECT_NAME    = H-2A R/B
OBJECT_ID      = 2006-002B
CENTER_NAME    = EARTH
REF_FRAME      = TEME
TIME_SYSTEM    = UTC
MEAN_ELEMENT_THEORY = SGP/SGP4

EPOCH          = 2025-12-17T08:15:07.210080
MEAN_MOTION    = 15.14662423
ECCENTRICITY   = .00546599
INCLINATION    = 98.2313
RA_OF_ASC_NODE = 126.4683
ARG_OF_PERICENTER = 160.7673
MEAN_ANOMALY   = 199.5637

EPHEMERIS_TYPE = 0
CLASSIFICATION_TYPE = U
NORAD_CAT_ID   = 28932
ELEMENT_SET_NO = 999
REV_AT_EPOCH   = 8196
BSTAR          = .46274414E-3
MEAN_MOTION_DOT = .8808E-4
MEAN_MOTION_DDOT = 0

CCSDS_OMM_VERS = 2.0
CREATION_DATE  = 
ORIGINATOR     = 

OBJECT_NAME    = RESURS-DK 1
OBJECT_ID      = 2006-021A
CENTER_NAME    = EARTH
REF_FRAME      = TEME
TIME_SYSTEM    = UTC
MEAN_ELEMENT_THEORY = SGP/SGP4

EPOCH          = 2025-12-17T07:53:01.900608
MEAN_MOTION    = 15.12187613
ECCENTRICITY   = .00069378
INCLINATION    = 69.9337
RA_OF_ASC_NODE = 89.9796
ARG_OF_PERICENTER = 255.5411
MEAN_ANOMALY   = 104.4985

EPHEMERIS_TYPE = 0
CLASSIFICATION_TYPE = U
NORAD_CAT_ID   = 29228
ELEMENT_SET_NO = 999
REV_AT_EPOCH   = 7507
BSTAR          = .14104064E-3
MEAN_MOTION_DOT = .2334E-4
MEAN_MOTION_DDOT = 0

CCSDS_OMM_VERS = 2.0
CREATION_DATE  = 
ORIGINATOR     = 

OBJECT_NAME    = CZ-4B R/B
OBJECT_ID      = 2006-046C
CENTER_NAME    = EARTH
REF_FRAME      = TEME
TIME_SYSTEM    = UTC
MEAN_ELEMENT_THEORY = SGP/SGP4

EPOCH          = 2025-12-17T03:01:05.185344
MEAN_MOTION    = 15.15917491
ECCENTRICITY   = .00336559
INCLINATION    = 97.5736
RA_OF_ASC_NODE = 31.2527
ARG_OF_PERICENTER = 191.0827
MEAN_ANOMALY   = 168.9669

EPHEMERIS_TYPE = 0
CLASSIFICATION_TYPE = U
NORAD_CAT_ID   = 29507
ELEMENT_SET_NO = 999
REV_AT_EPOCH   = 4753
BSTAR          = .23734086E-3
MEAN_MOTION_DOT = .4543E-4
MEAN_MOTION_DDOT = 0

CCSDS_OMM_VERS = 2.0
CREATION_DATE  = 
ORIGINATOR     = 

OBJECT_NAME    = CZ-2C R/B
OBJECT_ID      = 2007-010B
CENTER_NAME    = EARTH
REF_FRAME      = TEME
TIME_SYSTEM    = UTC
MEAN_ELEMENT_THEORY = SGP/SGP4

EPOCH          = 2025-12-17T07:09:18.175392
MEAN_MOTION    = 14.20211822
ECCENTRICITY   = .00592487
INCLINATION    = 98.3975
RA_OF_ASC_NODE = 103.7195
ARG_OF_PERICENTER = 172.7267
MEAN_ANOMALY   = 187.4784

EPHEMERIS_TYPE = 0
CLASSIFICATION_TYPE = U
NORAD_CAT_ID   = 31114
ELEMENT_SET_NO = 999
REV_AT_EPOCH   = 96802
BSTAR          = .73241676E-4
MEAN_MOTION_DOT = .118E-5
MEAN_MOTION_DDOT = 0

CCSDS_OMM_VERS = 2.0
CREATION_DATE  = 
ORIGINATOR     = 

OBJECT_NAME    = COSMO-SKYMED 1
OBJECT_ID      = 2007-023A
CENTER_NAME    = EARTH
REF_FRAME      = TEME
TIME_SYSTEM    = UTC
MEAN_ELEMENT_THEORY = SGP/SGP4

EPOCH          = 2025-12-17T08:05:25.879776
MEAN_MOTION    = 14.95801188
ECCENTRICITY   = .00015348
INCLINATION    = 97.8834
RA_OF_ASC_NODE = 176.7662
ARG_OF_PERICENTER = 88.0111
MEAN_ANOMALY   = 272.1285

EPHEMERIS_TYPE = 0
CLASSIFICATION_TYPE = U
NORAD_CAT_ID   = 31598
ELEMENT_SET_NO = 999
REV_AT_EPOCH   = 259
BSTAR          = .32434405E-3
MEAN_MOTION_DOT = .356E-4
MEAN_MOTION_DDOT = 0

CCSDS_OMM_VERS = 2.0
CREATION_DATE  = 
ORIGINATOR     = 

OBJECT_NAME    = COSMOS 2428
OBJECT_ID      = 2007-029A
CENTER_NAME    = EARTH
REF_FRAME      = TEME
TIME_SYSTEM    = UTC
MEAN_ELEMENT_THEORY = SGP/SGP4

EPOCH          = 2025-12-17T08:09:55.618848
MEAN_MOTION    = 14.12891296
ECCENTRICITY   = .00039226
INCLINATION    = 70.9366
RA_OF_ASC_NODE = 16.2207
ARG_OF_PERICENTER = 16.9037
MEAN_ANOMALY   = 343.2214

EPHEMERIS_TYPE = 0
CLASSIFICATION_TYPE = U
NORAD_CAT_ID   = 31792
ELEMENT_SET_NO = 999
REV_AT_EPOCH   = 95246
BSTAR          = .96939817E-4
MEAN_MOTION_DOT = .133E-5
MEAN_MOTION_DDOT = 0

CCSDS_OMM_VERS = 2.0
CREATION_DATE  = 
ORIGINATOR     = 

OBJECT_NAME    = SL-16 R/B
OBJECT_ID      = 2007-029B
CENTER_NAME    = EARTH
REF_FRAME      = TEME
TIME_SYSTEM    = UTC
MEAN_ELEMENT_THEORY = SGP/SGP4

EPOCH          = 2025-12-17T08:18:36.586656
MEAN_MOTION    = 14.14815096
ECCENTRICITY   = .00019997
INCLINATION    = 70.9755
RA_OF_ASC_NODE = 345.4741
ARG_OF_PERICENTER = 261.8907
MEAN_ANOMALY   = 199.3548

EPHEMERIS_TYPE = 0
CLASSIFICATION_TYPE = U
NORAD_CAT_ID   = 31793
ELEMENT_SET_NO = 999
REV_AT_EPOCH   = 95372
BSTAR          = .75281402E-4
MEAN_MOTION_DOT = .97E-6
MEAN_MOTION_DDOT = 0

CCSDS_OMM_VERS = 2.0
CREATION_DATE  = 
ORIGINATOR     = 

OBJECT_NAME    = KORONAS-FOTON
OBJECT_ID      = 2009-003A
CENTER_NAME    = EARTH
REF_FRAME      = TEME
TIME_SYSTEM    = UTC
MEAN_ELEMENT_THEORY = SGP/SGP4

EPOCH          = 2025-12-17T07:10:47.178624
MEAN_MOTION    = 15.41294869
ECCENTRICITY   = .00134191
INCLINATION    = 82.4307
RA_OF_ASC_NODE = 1.3814
ARG_OF_PERICENTER = 94.0866
MEAN_ANOMALY   = 266.1914

EPHEMERIS_TYPE = 0
CLASSIFICATION_TYPE = U
NORAD_CAT_ID   = 33504
ELEMENT_SET_NO = 999
REV_AT_EPOCH   = 93304
BSTAR          = .23275886E-3
MEAN_MOTION_DOT = .9757E-4
MEAN_MOTION_DDOT = 0

CCSDS_OMM_VERS = 2.0
CREATION_DATE  = 
ORIGINATOR     = 

OBJECT_NAME    = CZ-2C R/B
OBJECT_ID      = 2011-030B
CENTER_NAME    = EARTH
REF_FRAME      = TEME
TIME_SYSTEM    = UTC
MEAN_ELEMENT_THEORY = SGP/SGP4

EPOCH          = 2025-12-17T08:12:48.456864
MEAN_MOTION    = 14.80916771
ECCENTRICITY   = .00513142
INCLINATION    = 97.8418
RA_OF_ASC_NODE = 305.3470
ARG_OF_PERICENTER = 258.2258
MEAN_ANOMALY   = 262.9877

EPHEMERIS_TYPE = 0
CLASSIFICATION_TYPE = U
NORAD_CAT_ID   = 37731
ELEMENT_SET_NO = 999
REV_AT_EPOCH   = 77790
BSTAR          = .16662888E-3
MEAN_MOTION_DOT = .1262E-4
MEAN_MOTION_DDOT = 0

CCSDS_OMM_VERS = 2.0
CREATION_DATE  = 
ORIGINATOR     = 

OBJECT_NAME    = H-2A R/B
OBJECT_ID      = 2012-025E
CENTER_NAME    = EARTH
REF_FRAME      = TEME
TIME_SYSTEM    = UTC
MEAN_ELEMENT_THEORY = SGP/SGP4

EPOCH          = 2025-12-17T07:50:11.229504
MEAN_MOTION    = 14.94479572
ECCENTRICITY   = .00440057
INCLINATION    = 98.4604
RA_OF_ASC_NODE = 306.9104
ARG_OF_PERICENTER = 221.0244
MEAN_ANOMALY   = 138.7661

EPHEMERIS_TYPE = 0
CLASSIFICATION_TYPE = U
NORAD_CAT_ID   = 38341
ELEMENT_SET_NO = 999
REV_AT_EPOCH   = 73591
BSTAR          = .16296821E-3
MEAN_MOTION_DOT = .1722E-4
MEAN_MOTION_DDOT = 0

CCSDS_OMM_VERS = 2.0
CREATION_DATE  = 
ORIGINATOR     = 

OBJECT_NAME    = SHIJIAN-16 (SJ-16)
OBJECT_ID      = 2013-057A
CENTER_NAME    = EARTH
REF_FRAME      = TEME
TIME_SYSTEM    = UTC
MEAN_ELEMENT_THEORY = SGP/SGP4

EPOCH          = 2025-12-17T07:06:25.649280
MEAN_MOTION    = 14.91997658
ECCENTRICITY   = .0017763
INCLINATION    = 74.9731
RA_OF_ASC_NODE = 341.0341
ARG_OF_PERICENTER = 309.1248
MEAN_ANOMALY   = 50.8360

EPHEMERIS_TYPE = 0
CLASSIFICATION_TYPE = U
NORAD_CAT_ID   = 39358
ELEMENT_SET_NO = 999
REV_AT_EPOCH   = 65921
BSTAR          = .11907738E-3
MEAN_MOTION_DOT = .1181E-4
MEAN_MOTION_DDOT = 0

