ALOS (DAICHI)           
1 28931U 06002A   25351.32564497  .00001174  00000+0  20641-3 0  9995
2 28931  98.1098 302.7807 0001345 113.9795 246.1551 14.69500904 61385
H-2A R/B                
1 28932U 06002B   25351.34383345  .00008808  00000+0  46274-3 0  9990
2 28932  98.2313 126.4683 0054659 160.7673 199.5637 15.14662423 81969
RESURS-DK 1             
1 29228U 06021A   25351.32849422  .00002334  00000+0  14104-3 0  9996
2 29228  69.9337  89.9796 0006937 255.5411 104.4985 15.12187613 75073
CZ-4B R/B               
1 29507U 06046C   25351.12575446  .00004543  00000+0  23734-3 0  9996
2 29507  97.5736  31.2527 0033655 191.0827 168.9669 15.15917491 47539
CZ-2C R/B               
1 31114U 07010B   25351.29812703  .00000118  00000+0  73242-4 0  9997
2 31114  98.3975 103.7195 0059248 172.7267 187.4784 14.20211822968026
COSMO-SKYMED 1          
1 31598U 07023A   25351.33710509  .00003560  00000+0  32434-3 0  9994
2 31598  97.8834 176.7662 0001534  88.0111 272.1285 14.95801188  2592
COSMOS 2428             
1 31792U 07029A   25351.34022707  .00000133  00000+0  96940-4 0  9999
2 31792  70.9366  16.2207 0003922  16.9037 343.2214 14.12891296952463
SL-16 R/B               
1 31793U 07029B   25351.34625679  .00000097  00000+0  75281-4 0  9991
2 31793  70.9755 345.4741 0001999 261.8907 199.3548 14.14815096953721
KORONAS-FOTON           
1 33504U 09003A   25351.29915716  .00009757  00000+0  23276-3 0  9993
2 33504  82.4307   1.3814 0013419  94.0866 266.1914 15.41294869933046
CZ-2C R/B               
1 37731U 11030B   25351.34222751  .00001262  00000+0  16663-3 0  9993
2 37731  97.8418 305.3470 0051314 258.2258 262.9877 14.80916771777903
H-2A R/B                
1 38341U 12025E   25351.32651886  .00001722  00000+0  16297-3 0  9993
2 38341  98.4604 306.9104 0044005 221.0244 138.7661 14.94479572735912
SHIJIAN-16 (SJ-16)      
1 39358U 13057A   25351.29613020  .00001181  00000+0  11908-3 0  9995
2 39358  74.9731 341.0341 0017763 309.1248  50.8360 14.91997658659212
